<?xml version="1.0" encoding="UTF-8"?>
<ndm xmlns:xsi="http://www.w3.org/2001/XMLSchema-instance" xsi:noNamespaceSchemaLocation="https://sanaregistry.org/r/ndmxml_unqualified/ndmxml-2.0.0-master-2.0.xsd">
<omm id="CCSDS_OMM_VERS" version="2.0">
<header><CREATION_DATE/><ORIGINATOR/></header><body><segment><metadata><OBJECT_NAME>ORBCOMM FM05 [-]</OBJECT_NAME><OBJECT_ID>1997-084F</OBJECT_ID><CENTER_NAME>EARTH</CENTER_NAME><REF_FRAME>TEME</REF_FRAME><TIME_SYSTEM>UTC</TIME_SYSTEM><MEAN_ELEMENT_THEORY>SGP4</MEAN_ELEMENT_THEORY></metadata><data><meanElements><EPOCH>2024-03-25T03:17:29.331456</EPOCH><MEAN_MOTION>14.42386947</MEAN_MOTION><ECCENTRICITY>.000189</ECCENTRICITY><INCLINATION>45.0163</INCLINATION><RA_OF_ASC_NODE>358.0963</RA_OF_ASC_NODE><ARG_OF_PERICENTER>109.0873</ARG_OF_PERICENTER><MEAN_ANOMALY>251.0182</MEAN_ANOMALY></meanElements><tleParameters><EPHEMERIS_TYPE>0</EPHEMERIS_TYPE><CLASSIFICATION_TYPE>U</CLASSIFICATION_TYPE><NORAD_CAT_ID>25117</NORAD_CAT_ID><ELEMENT_SET_NO>999</ELEMENT_SET_NO><REV_AT_EPOCH>37663</REV_AT_EPOCH><BSTAR>.19552E-2</BSTAR><MEAN_MOTION_DOT>.6389E-4</MEAN_MOTION_DOT><MEAN_MOTION_DDOT>0</MEAN_MOTION_DDOT></tleParameters></data></segment></body></omm>
<omm id="CCSDS_OMM_VERS" version="2.0">
<header><CREATION_DATE/><ORIGINATOR/></header><body><segment><metadata><OBJECT_NAME>ORBCOMM FM06 [+]</OBJECT_NAME><OBJECT_ID>1997-084G</OBJECT_ID><CENTER_NAME>EARTH</CENTER_NAME><REF_FRAME>TEME</REF_FRAME><TIME_SYSTEM>UTC</TIME_SYSTEM><MEAN_ELEMENT_THEORY>SGP4</MEAN_ELEMENT_THEORY></metadata><data><meanElements><EPOCH>2024-03-25T04:42:08.467776</EPOCH><MEAN_MOTION>14.42398565</MEAN_MOTION><ECCENTRICITY>.0001139</ECCENTRICITY><INCLINATION>45.0154</INCLINATION><RA_OF_ASC_NODE>357.9936</RA_OF_ASC_NODE><ARG_OF_PERICENTER>118.5789</ARG_OF_PERICENTER><MEAN_ANOMALY>36.8020</MEAN_ANOMALY></meanElements><tleParameters><EPHEMERIS_TYPE>0</EPHEMERIS_TYPE><CLASSIFICATION_TYPE>U</CLASSIFICATION_TYPE><NORAD_CAT_ID>25118</NORAD_CAT_ID><ELEMENT_SET_NO>999</ELEMENT_SET_NO><REV_AT_EPOCH>37664</REV_AT_EPOCH><BSTAR>.2104E-2</BSTAR><MEAN_MOTION_DOT>.6888E-4</MEAN_MOTION_DOT><MEAN_MOTION_DDOT>0</MEAN_MOTION_DDOT></tleParameters></data></segment></body></omm>
<omm id="CCSDS_OMM_VERS" version="2.0">
<header><CREATION_DATE/><ORIGINATOR/></header><body><segment><metadata><OBJECT_NAME>ORBCOMM FM07 [-]</OBJECT_NAME><OBJECT_ID>1997-084H</OBJECT_ID><CENTER_NAME>EARTH</CENTER_NAME><REF_FRAME>TEME</REF_FRAME><TIME_SYSTEM>UTC</TIME_SYSTEM><MEAN_ELEMENT_THEORY>SGP4</MEAN_ELEMENT_THEORY></metadata><data><meanElements><EPOCH>2024-03-24T21:04:00.680160</EPOCH><MEAN_MOTION>14.42329039</MEAN_MOTION><ECCENTRICITY>.0002453</ECCENTRICITY><INCLINATION>45.0159</INCLINATION><RA_OF_ASC_NODE>0.0221</RA_OF_ASC_NODE><ARG_OF_PERICENTER>100.9246</ARG_OF_PERICENTER><MEAN_ANOMALY>259.1880</MEAN_ANOMALY></meanElements><tleParameters><EPHEMERIS_TYPE>0</EPHEMERIS_TYPE><CLASSIFICATION_TYPE>U</CLASSIFICATION_TYPE><NORAD_CAT_ID>25119</NORAD_CAT_ID><ELEMENT_SET_NO>999</ELEMENT_SET_NO><REV_AT_EPOCH>37656</REV_AT_EPOCH><BSTAR>.33018E-2</BSTAR><MEAN_MOTION_DOT>.10883E-3</MEAN_MOTION_DOT><MEAN_MOTION_DDOT>0</MEAN_MOTION_DDOT></tleParameters></data></segment></body></omm>
<omm id="CCSDS_OMM_VERS" version="2.0">
<header><CREATION_DATE/><ORIGINATOR/></header><body><segment><metadata><OBJECT_NAME>ORBCOMM FM03 [-]</OBJECT_NAME><OBJECT_ID>1998-007B</OBJECT_ID><CENTER_NAME>EARTH</CENTER_NAME><REF_FRAME>TEME</REF_FRAME><TIME_SYSTEM>UTC</TIME_SYSTEM><MEAN_ELEMENT_THEORY>SGP4</MEAN_ELEMENT_THEORY></metadata><data><meanElements><EPOCH>2024-03-25T04:57:48.626784</EPOCH><MEAN_MOTION>14.31971874</MEAN_MOTION><ECCENTRICITY>.0048792</ECCENTRICITY><INCLINATION>107.9773</INCLINATION><RA_OF_ASC_NODE>294.9527</RA_OF_ASC_NODE><ARG_OF_PERICENTER>311.2302</ARG_OF_PERICENTER><MEAN_ANOMALY>48.4637</MEAN_ANOMALY></meanElements><tleParameters><EPHEMERIS_TYPE>0</EPHEMERIS_TYPE><CLASSIFICATION_TYPE>U</CLASSIFICATION_TYPE><NORAD_CAT_ID>25158</NORAD_CAT_ID><ELEMENT_SET_NO>999</ELEMENT_SET_NO><REV_AT_EPOCH>35985</REV_AT_EPOCH><BSTAR>.13712E-2</BSTAR><MEAN_MOTION_DOT>.3603E-4</MEAN_MOTION_DOT><MEAN_MOTION_DDOT>0</MEAN_MOTION_DDOT></tleParameters></data></segment></body></omm>
<omm id="CCSDS_OMM_VERS" version="2.0">
<header><CREATION_DATE/><ORIGINATOR/></header><body><segment><metadata><OBJECT_NAME>ORBCOMM FM04 [+]</OBJECT_NAME><OBJECT_ID>1998-007C</OBJECT_ID><CENTER_NAME>EARTH</CENTER_NAME><REF_FRAME>TEME</REF_FRAME><TIME_SYSTEM>UTC</TIME_SYSTEM><MEAN_ELEMENT_THEORY>SGP4</MEAN_ELEMENT_THEORY></metadata><data><meanElements><EPOCH>2024-03-25T04:53:26.364768</EPOCH><MEAN_MOTION>14.32229288</MEAN_MOTION><ECCENTRICITY>.0044396</ECCENTRICITY><INCLINATION>107.9756</INCLINATION><RA_OF_ASC_NODE>297.8535</RA_OF_ASC_NODE><ARG_OF_PERICENTER>309.0641</ARG_OF_PERICENTER><MEAN_ANOMALY>50.6552</MEAN_ANOMALY></meanElements><tleParameters><EPHEMERIS_TYPE>0</EPHEMERIS_TYPE><CLASSIFICATION_TYPE>U</CLASSIFICATION_TYPE><NORAD_CAT_ID>25159</NORAD_CAT_ID><ELEMENT_SET_NO>999</ELEMENT_SET_NO><REV_AT_EPOCH>35999</REV_AT_EPOCH><BSTAR>.15339E-2</BSTAR><MEAN_MOTION_DOT>.4059E-4</MEAN_MOTION_DOT><MEAN_MOTION_DDOT>0</MEAN_MOTION_DDOT></tleParameters></data></segment></body></omm>
<omm id="CCSDS_OMM_VERS" version="2.0">
<header><CREATION_DATE/><ORIGINATOR/></header><body><segment><metadata><OBJECT_NAME>ORBCOMM FM18 [-]</OBJECT_NAME><OBJECT_ID>1998-046B</OBJECT_ID><CENTER_NAME>EARTH</CENTER_NAME><REF_FRAME>TEME</REF_FRAME><TIME_SYSTEM>UTC</TIME_SYSTEM><MEAN_ELEMENT_THEORY>SGP4</MEAN_ELEMENT_THEORY></metadata><data><meanElements><EPOCH>2024-03-25T05:08:36.633696</EPOCH><MEAN_MOTION>14.35640908</MEAN_MOTION><ECCENTRICITY>.000503</ECCENTRICITY><INCLINATION>44.9922</INCLINATION><RA_OF_ASC_NODE>141.0278</RA_OF_ASC_NODE><ARG_OF_PERICENTER>206.5885</ARG_OF_PERICENTER><MEAN_ANOMALY>153.4705</MEAN_ANOMALY></meanElements><tleParameters><EPHEMERIS_TYPE>0</EPHEMERIS_TYPE><CLASSIFICATION_TYPE>U</CLASSIFICATION_TYPE><NORAD_CAT_ID>25414</NORAD_CAT_ID><ELEMENT_SET_NO>999</ELEMENT_SET_NO><REV_AT_EPOCH>33983</REV_AT_EPOCH><BSTAR>.14853E-2</BSTAR><MEAN_MOTION_DOT>.4185E-4</MEAN_MOTION_DOT><MEAN_MOTION_DDOT>0</MEAN_MOTION_DDOT></tleParameters></data></segment></body></omm>
<omm id="CCSDS_OMM_VERS" version="2.0">
<header><CREATION_DATE/><ORIGINATOR/></header><body><segment><metadata><OBJECT_NAME>ORBCOMM FM19 [+]</OBJECT_NAME><OBJECT_ID>1998-046C</OBJECT_ID><CENTER_NAME>EARTH</CENTER_NAME><REF_FRAME>TEME</REF_FRAME><TIME_SYSTEM>UTC</TIME_SYSTEM><MEAN_ELEMENT_THEORY>SGP4</MEAN_ELEMENT_THEORY></metadata><data><meanElements><EPOCH>2024-03-25T13:16:12.687168</EPOCH><MEAN_MOTION>14.35481462</MEAN_MOTION><ECCENTRICITY>.0003788</ECCENTRICITY><INCLINATION>44.9930</INCLINATION><RA_OF_ASC_NODE>140.7786</RA_OF_ASC_NODE><ARG_OF_PERICENTER>208.6297</ARG_OF_PERICENTER><MEAN_ANOMALY>305.7693</MEAN_ANOMALY></meanElements><tleParameters><EPHEMERIS_TYPE>0</EPHEMERIS_TYPE><CLASSIFICATION_TYPE>U</CLASSIFICATION_TYPE><NORAD_CAT_ID>25415</NORAD_CAT_ID><ELEMENT_SET_NO>999</ELEMENT_SET_NO><REV_AT_EPOCH>33987</REV_AT_EPOCH><BSTAR>.17866E-2</BSTAR><MEAN_MOTION_DOT>.5047E-4</MEAN_MOTION_DOT><MEAN_MOTION_DDOT>0</MEAN_MOTION_DDOT></tleParameters></data></segment></body></omm>

</ndm>
