ORBCOMM FM05 [-]        
1 25117U 97084F   24085.13714504  .00006389  00000+0  19552-2 0  9997
2 25117  45.0163 358.0963 0001890 109.0873 251.0182 14.42386947376639
ORBCOMM FM06 [+]        
1 25118U 97084G   24085.19593134  .00006888  00000+0  21040-2 0  9997
2 25118  45.0154 357.9936 0001139 118.5789  36.8020 14.42398565376645
ORBCOMM FM07 [-]        
1 25119U 97084H   24084.87778565  .00010883  00000+0  33018-2 0  9993
2 25119  45.0159   0.0221 0002453 100.9246 259.1880 14.42329039376562
ORBCOMM FM03 [-]        
1 25158U 98007B   24085.20681281  .00003603  00000+0  13712-2 0  9999
2 25158 107.9773 294.9527 0048792 311.2302  48.4637 14.31971874359854
ORBCOMM FM04 [+]        
1 25159U 98007C   24085.20377737  .00004059  00000+0  15339-2 0  9991
2 25159 107.9756 297.8535 0044396 309.0641  50.6552 14.32229288359996
ORBCOMM FM18 [-]        
1 25414U 98046B   24085.21431289  .00004185  00000+0  14853-2 0  9992
2 25414  44.9922 141.0278 0005030 206.5885 153.4705 14.35640908339834
ORBCOMM FM19 [+]        
1 25415U 98046C   24085.55292462  .00005047  00000+0  17866-2 0  9993
2 25415  44.9930 140.7786 0003788 208.6297 305.7693 14.35481462339872
